{
  "norad_id": 57639,
  "name": "STARLINK-30326",
  "history": [
    {
      "epoch": "2026-04-14T16:42:57.307968Z",
      "apogee_km": 483.9553679214596,
      "perigee_km": 482.1467587479656,
      "latitude_deg": -5.954345517858777e-06,
      "longitude_deg": 155.54599944857569,
      "height_km": 482.897561106339,
      "semi_major_axis_km": 6861.188063334713,
      "eccentricity": 0.0001318,
      "inclination_deg": 43.004,
      "raan_deg": 249.154,
      "arg_perigee_deg": 265.5966,
      "mean_anomaly_deg": 94.4735,
      "mean_motion_rev_day": 15.27579343
    },
    {
      "epoch": "2026-04-15T16:15:18.593856Z",
      "apogee_km": 483.8327993378489,
      "perigee_km": 482.3521460176453,
      "latitude_deg": -1.3333552005541658e-05,
      "longitude_deg": 155.94997970750535,
      "height_km": 482.9120726601082,
      "semi_major_axis_km": 6861.229472677747,
      "eccentricity": 0.0001079,
      "inclination_deg": 43.002,
      "raan_deg": 243.6134,
      "arg_perigee_deg": 266.6739,
      "mean_anomaly_deg": 93.3989,
      "mean_motion_rev_day": 15.27565514
    },
    {
      "epoch": "2026-04-16T15:47:39.062400Z",
      "apogee_km": 484.01484686183903,
      "perigee_km": 482.1033176333249,
      "latitude_deg": -2.000679620766995e-06,
      "longitude_deg": 156.35709492143047,
      "height_km": 482.9872665521327,
      "semi_major_axis_km": 6861.196082247581,
      "eccentricity": 0.0001393,
      "inclination_deg": 43.001,
      "raan_deg": 238.0725,
      "arg_perigee_deg": 260.8848,
      "mean_anomaly_deg": 99.1846,
      "mean_motion_rev_day": 15.27576665
    },
    {
      "epoch": "2026-04-17T18:28:18.604992Z",
      "apogee_km": 483.98900291525933,
      "perigee_km": 482.12399329860455,
      "latitude_deg": 3.6298346633308617e-06,
      "longitude_deg": 108.82122947863795,
      "height_km": 482.8559028245245,
      "semi_major_axis_km": 6861.193498106932,
      "eccentricity": 0.00013591,
      "inclination_deg": 43.0028,
      "raan_deg": 231.797,
      "arg_perigee_deg": 268.6218,
      "mean_anomaly_deg": 91.4478,
      "mean_motion_rev_day": 15.27577528
    },
    {
      "epoch": "2026-04-18T14:52:20.224992Z",
      "apogee_km": 483.8563125393821,
      "perigee_km": 482.21923623821294,
      "latitude_deg": -8.965478765159877e-06,
      "longitude_deg": 157.1759495985672,
      "height_km": 482.77163773001206,
      "semi_major_axis_km": 6861.174774388797,
      "eccentricity": 0.0001193,
      "inclination_deg": 43.0038,
      "raan_deg": 226.9963,
      "arg_perigee_deg": 273.0178,
      "mean_anomaly_deg": 87.0537,
      "mean_motion_rev_day": 15.27583781
    },
    {
      "epoch": "2026-04-19T14:24:40.277088Z",
      "apogee_km": 484.53983402502035,
      "perigee_km": 481.5113168642183,
      "latitude_deg": 1.374295670252468e-05,
      "longitude_deg": 157.58601424352472,
      "height_km": 482.82684039895827,
      "semi_major_axis_km": 6861.162575444619,
      "eccentricity": 0.0002207,
      "inclination_deg": 43.0044,
      "raan_deg": 221.4566,
      "arg_perigee_deg": 269.1125,
      "mean_anomaly_deg": 90.9474,
      "mean_motion_rev_day": 15.27587855
    },
    {
      "epoch": "2026-04-20T13:57:01.847232Z",
      "apogee_km": 485.7031745092672,
      "perigee_km": 480.4376095083435,
      "latitude_deg": -2.3379280238936397e-05,
      "longitude_deg": 157.98927153981535,
      "height_km": 482.0519902609345,
      "semi_major_axis_km": 6861.207392008805,
      "eccentricity": 0.00038372,
      "inclination_deg": 42.9988,
      "raan_deg": 215.9165,
      "arg_perigee_deg": 287.6121,
      "mean_anomaly_deg": 72.4311,
      "mean_motion_rev_day": 15.27572888
    },
    {
      "epoch": "2026-04-21T13:29:22.653600Z",
      "apogee_km": 484.7841546424552,
      "perigee_km": 481.4043121368877,
      "latitude_deg": -9.121125892083131e-06,
      "longitude_deg": 158.39717413303643,
      "height_km": 482.74224251946487,
      "semi_major_axis_km": 6861.231233389672,
      "eccentricity": 0.0002463,
      "inclination_deg": 42.9986,
      "raan_deg": 210.3778,
      "arg_perigee_deg": 274.39,
      "mean_anomaly_deg": 85.667,
      "mean_motion_rev_day": 15.27564926
    },
    {
      "epoch": "2026-04-22T13:01:43.568832Z",
      "apogee_km": 483.78207506065337,
      "perigee_km": 482.32462100692464,
      "latitude_deg": 3.102347134242298e-05,
      "longitude_deg": 158.80604941550376,
      "height_km": 483.0272174509809,
      "semi_major_axis_km": 6861.190348033789,
      "eccentricity": 0.00010621,
      "inclination_deg": 43.0061,
      "raan_deg": 204.8405,
      "arg_perigee_deg": 254.3288,
      "mean_anomaly_deg": 105.7447,
      "mean_motion_rev_day": 15.2757858
    },
    {
      "epoch": "2026-04-23T12:34:04.764864Z",
      "apogee_km": 484.3242569769254,
      "perigee_km": 481.81511369209875,
      "latitude_deg": 5.35803687419936e-05,
      "longitude_deg": 159.21183316988694,
      "height_km": 482.8849837893615,
      "semi_major_axis_km": 6861.206685334511,
      "eccentricity": 0.00018285,
      "inclination_deg": 43.0034,
      "raan_deg": 199.3013,
      "arg_perigee_deg": 268.2695,
      "mean_anomaly_deg": 91.7948,
      "mean_motion_rev_day": 15.27573124
    },
    {
      "epoch": "2026-04-24T12:06:25.602336Z",
      "apogee_km": 483.80771924510555,
      "perigee_km": 482.34902485700786,
      "latitude_deg": -1.6382818305695218e-05,
      "longitude_deg": 159.61961709417153,
      "height_km": 482.9660120465252,
      "semi_major_axis_km": 6861.215372051057,
      "eccentricity": 0.0001063,
      "inclination_deg": 43.0008,
      "raan_deg": 193.7627,
      "arg_perigee_deg": 261.2334,
      "mean_anomaly_deg": 98.8397,
      "mean_motion_rev_day": 15.27570223
    },
    {
      "epoch": "2026-04-25T11:38:46.248000Z",
      "apogee_km": 484.24102972849596,
      "perigee_km": 481.91919385786514,
      "latitude_deg": 1.3045645152817426e-05,
      "longitude_deg": 160.02470922205893,
      "height_km": 482.90160987698664,
      "semi_major_axis_km": 6861.21711179318,
      "eccentricity": 0.0001692,
      "inclination_deg": 42.9971,
      "raan_deg": 188.2205,
      "arg_perigee_deg": 267.7839,
      "mean_anomaly_deg": 92.2819,
      "mean_motion_rev_day": 15.27569642
    },
    {
      "epoch": "2026-04-26T20:36:03.265632Z",
      "apogee_km": 484.0964156372229,
      "perigee_km": 482.00855567673807,
      "latitude_deg": 5.002755145016455e-05,
      "longitude_deg": 16.599039754253585,
      "height_km": 482.8442224340102,
      "semi_major_axis_km": 6861.189485656981,
      "eccentricity": 0.00015215,
      "inclination_deg": 43.0004,
      "raan_deg": 180.4691,
      "arg_perigee_deg": 269.1823,
      "mean_anomaly_deg": 90.8855,
      "mean_motion_rev_day": 15.27578868
    },
    {
      "epoch": "2026-04-27T10:43:28.272864Z",
      "apogee_km": 484.4507594633178,
      "perigee_km": 481.71862098627116,
      "latitude_deg": -4.512590285079364e-05,
      "longitude_deg": 160.8389057429869,
      "height_km": 482.9225615600781,
      "semi_major_axis_km": 6861.221690224795,
      "eccentricity": 0.0001991,
      "inclination_deg": 42.9988,
      "raan_deg": 177.1433,
      "arg_perigee_deg": 267.4473,
      "mean_anomaly_deg": 92.615,
      "mean_motion_rev_day": 15.27568113
    },
    {
      "epoch": "2026-04-28T05:33:20.716128Z",
      "apogee_km": 484.1418673428043,
      "perigee_km": 481.9696137211522,
      "latitude_deg": 3.4341661464763356e-06,
      "longitude_deg": -126.83602675906815,
      "height_km": 482.98374725095675,
      "semi_major_axis_km": 6861.1927405319775,
      "eccentricity": 0.0001583,
      "inclination_deg": 42.9969,
      "raan_deg": 172.7102,
      "arg_perigee_deg": 261.98,
      "mean_anomaly_deg": 98.0872,
      "mean_motion_rev_day": 15.27577781
    },
    {
      "epoch": "2026-04-29T11:22:19.297344Z",
      "apogee_km": 484.08687997284596,
      "perigee_km": 482.0279727493835,
      "latitude_deg": 8.474635440215209e-06,
      "longitude_deg": 137.67998007917467,
      "height_km": 483.0321235346867,
      "semi_major_axis_km": 6861.194426361114,
      "eccentricity": 0.00015004,
      "inclination_deg": 42.9974,
      "raan_deg": 165.6948,
      "arg_perigee_deg": 258.8965,
      "mean_anomaly_deg": 101.1718,
      "mean_motion_rev_day": 15.27577218
    },
    {
      "epoch": "2026-04-30T09:20:30.437952Z",
      "apogee_km": 484.10241616856547,
      "perigee_km": 481.9803909119173,
      "latitude_deg": -5.867711039506821e-06,
      "longitude_deg": 162.06217949939287,
      "height_km": 482.9642412060506,
      "semi_major_axis_km": 6861.178403540241,
      "eccentricity": 0.00015464,
      "inclination_deg": 42.9984,
      "raan_deg": 160.5257,
      "arg_perigee_deg": 262.0784,
      "mean_anomaly_deg": 97.9892,
      "mean_motion_rev_day": 15.27582569
    },
    {
      "epoch": "2026-05-02T03:42:43.488864Z",
      "apogee_km": 484.24005082423355,
      "perigee_km": 481.84549908277586,
      "latitude_deg": 2.4998662450038587e-05,
      "longitude_deg": -125.20315441391936,
      "height_km": 482.9391574108998,
      "semi_major_axis_km": 6861.179774953504,
      "eccentricity": 0.0001745,
      "inclination_deg": 42.9987,
      "raan_deg": 150.5548,
      "arg_perigee_deg": 264.2682,
      "mean_anomaly_deg": 95.7971,
      "mean_motion_rev_day": 15.27582111
    },
    {
      "epoch": "2026-05-03T07:57:32.895072Z",
      "apogee_km": 484.1456347026606,
      "perigee_km": 481.9809260142074,
      "latitude_deg": -2.5997528403100933e-05,
      "longitude_deg": 163.28656369535733,
      "height_km": 482.9229646949832,
      "semi_major_axis_km": 6861.200280358434,
      "eccentricity": 0.00015775,
      "inclination_deg": 43.0005,
      "raan_deg": 143.9105,
      "arg_perigee_deg": 265.6129,
      "mean_anomaly_deg": 94.4542,
      "mean_motion_rev_day": 15.27575263
    }
  ]
}